ATLAS CENTAUR R/B       
1 06155U 72065B   25364.02733628  .00001967  00000+0  27228-3 0  9994
2 06155  35.0025 353.9285 0033499 145.2336 215.0561 14.77459100830954
SL-8 R/B                
1 08459U 75112B   25364.15145203  .00000473  00000+0  16420-3 0  9992
2 08459  74.0602 146.8313 0016693 256.4954 103.4340 14.38158116621870
SL-3 R/B                
1 10114U 77057B   25364.13436573  .00018055  00000+0  40548-3 0  9997
2 10114  97.5688 168.1456 0007616 165.6591 194.4874 15.43396961657592
SEASAT 1                
1 10967U 78064A   25364.18393683  .00000712  00000+0  23774-3 0  9994
2 10967 108.0142 339.6340 0001252 258.8348 101.2656 14.46082680496466
SL-14 R/B               
1 11267U 79011B   25364.16062292  .00001137  00000+0  11010-3 0  9990
2 11267  82.5240 162.5216 0014735 292.0334  67.9320 14.91794952518413
SL-8 R/B                
1 11574U 79089B   25364.03813822  .00000367  00000+0  11895-3 0  9990
2 11574  74.0671 219.9635 0014863  47.3282 312.9124 14.42294934426060
SL-14 R/B               
1 11672U 80005B   25364.12803931  .00000986  00000+0  97423-4 0  9998
2 11672  82.5139  13.2062 0016782  40.1156 320.1299 14.90814809466121
SL-8 R/B                
1 12139U 81003B   25363.99808976  .00026519  00000+0  70119-3 0  9996
2 12139  82.9359 354.3232 0276631  61.0487 301.8177 15.07629098304165
SL-3 R/B                
1 12465U 81046B   25364.11031493  .00016746  00000+0  41635-3 0  9994
2 12465  81.2323  13.1511 0017989 260.2235  99.6976 15.40001049427716
SL-3 R/B                
1 12904U 81103B   25364.10116211  .00009852  00000+0  44915-3 0  9991
2 12904  81.1594 295.0186 0013325 152.5456 207.6481 15.20455671962651
SL-3 R/B                
1 13068U 82013B   25364.14082492  .00007126  00000+0  31547-3 0  9990
2 13068  81.1745 242.2401 0023891  55.3263 305.0215 15.21251128393771
SL-3 R/B                
1 13154U 82039B   25364.13836709  .00004899  00000+0  30015-3 0  9994
2 13154  81.1700 296.0790 0029494 193.1298 166.9163 15.09636212371140
