CCSDS_OMM_VERS = 2.0
CREATION_DATE  = 
ORIGINATOR     = 

OBJECT_NAME    = ATLAS CENTAUR R/B
OBJECT_ID      = 1972-065B
CENTER_NAME    = EARTH
REF_FRAME      = TEME
TIME_SYSTEM    = UTC
MEAN_ELEMENT_THEORY = SGP/SGP4

EPOCH          = 2025-12-30T00:39:21.854592
MEAN_MOTION    = 14.77459100
ECCENTRICITY   = .0033499
INCLINATION    = 35.0025
RA_OF_ASC_NODE = 353.9285
ARG_OF_PERICENTER = 145.2336
MEAN_ANOMALY   = 215.0561

EPHEMERIS_TYPE = 0
CLASSIFICATION_TYPE = U
NORAD_CAT_ID   = 6155
ELEMENT_SET_NO = 999
REV_AT_EPOCH   = 83095
BSTAR          = .27228E-3
MEAN_MOTION_DOT = .1967E-4
MEAN_MOTION_DDOT = 0

CCSDS_OMM_VERS = 2.0
CREATION_DATE  = 
ORIGINATOR     = 

OBJECT_NAME    = SL-8 R/B
OBJECT_ID      = 1975-112B
CENTER_NAME    = EARTH
REF_FRAME      = TEME
TIME_SYSTEM    = UTC
MEAN_ELEMENT_THEORY = SGP/SGP4

EPOCH          = 2025-12-30T03:38:05.455392
MEAN_MOTION    = 14.38158116
ECCENTRICITY   = .0016693
INCLINATION    = 74.0602
RA_OF_ASC_NODE = 146.8313
ARG_OF_PERICENTER = 256.4954
MEAN_ANOMALY   = 103.4340

EPHEMERIS_TYPE = 0
CLASSIFICATION_TYPE = U
NORAD_CAT_ID   = 8459
ELEMENT_SET_NO = 999
REV_AT_EPOCH   = 62187
BSTAR          = .1642E-3
MEAN_MOTION_DOT = .473E-5
MEAN_MOTION_DDOT = 0

CCSDS_OMM_VERS = 2.0
CREATION_DATE  = 
ORIGINATOR     = 

OBJECT_NAME    = SL-3 R/B
OBJECT_ID      = 1977-057B
CENTER_NAME    = EARTH
REF_FRAME      = TEME
TIME_SYSTEM    = UTC
MEAN_ELEMENT_THEORY = SGP/SGP4

EPOCH          = 2025-12-30T03:13:29.199072
MEAN_MOTION    = 15.43396961
ECCENTRICITY   = .0007616
INCLINATION    = 97.5688
RA_OF_ASC_NODE = 168.1456
ARG_OF_PERICENTER = 165.6591
MEAN_ANOMALY   = 194.4874

EPHEMERIS_TYPE = 0
CLASSIFICATION_TYPE = U
NORAD_CAT_ID   = 10114
ELEMENT_SET_NO = 999
REV_AT_EPOCH   = 65759
BSTAR          = .40548E-3
MEAN_MOTION_DOT = .18055E-3
MEAN_MOTION_DDOT = 0

CCSDS_OMM_VERS = 2.0
CREATION_DATE  = 
ORIGINATOR     = 

OBJECT_NAME    = SEASAT 1
OBJECT_ID      = 1978-064A
CENTER_NAME    = EARTH
REF_FRAME      = TEME
TIME_SYSTEM    = UTC
MEAN_ELEMENT_THEORY = SGP/SGP4

EPOCH          = 2025-12-30T04:24:52.142112
MEAN_MOTION    = 14.46082680
ECCENTRICITY   = .0001252
INCLINATION    = 108.0142
RA_OF_ASC_NODE = 339.6340
ARG_OF_PERICENTER = 258.8348
MEAN_ANOMALY   = 101.2656

EPHEMERIS_TYPE = 0
CLASSIFICATION_TYPE = U
NORAD_CAT_ID   = 10967
ELEMENT_SET_NO = 999
REV_AT_EPOCH   = 49646
BSTAR          = .23774E-3
MEAN_MOTION_DOT = .712E-5
MEAN_MOTION_DDOT = 0

CCSDS_OMM_VERS = 2.0
CREATION_DATE  = 
ORIGINATOR     = 

OBJECT_NAME    = SL-14 R/B
OBJECT_ID      = 1979-011B
CENTER_NAME    = EARTH
REF_FRAME      = TEME
TIME_SYSTEM    = UTC
MEAN_ELEMENT_THEORY = SGP/SGP4

EPOCH          = 2025-12-30T03:51:17.820288
MEAN_MOTION    = 14.91794952
ECCENTRICITY   = .0014735
INCLINATION    = 82.5240
RA_OF_ASC_NODE = 162.5216
ARG_OF_PERICENTER = 292.0334
MEAN_ANOMALY   = 67.9320

EPHEMERIS_TYPE = 0
CLASSIFICATION_TYPE = U
NORAD_CAT_ID   = 11267
ELEMENT_SET_NO = 999
REV_AT_EPOCH   = 51841
BSTAR          = .1101E-3
MEAN_MOTION_DOT = .1137E-4
MEAN_MOTION_DDOT = 0

CCSDS_OMM_VERS = 2.0
CREATION_DATE  = 
ORIGINATOR     = 

OBJECT_NAME    = SL-8 R/B
OBJECT_ID      = 1979-089B
CENTER_NAME    = EARTH
REF_FRAME      = TEME
TIME_SYSTEM    = UTC
MEAN_ELEMENT_THEORY = SGP/SGP4

EPOCH          = 2025-12-30T00:54:55.142208
MEAN_MOTION    = 14.42294934
ECCENTRICITY   = .0014863
INCLINATION    = 74.0671
RA_OF_ASC_NODE = 219.9635
ARG_OF_PERICENTER = 47.3282
MEAN_ANOMALY   = 312.9124

EPHEMERIS_TYPE = 0
CLASSIFICATION_TYPE = U
NORAD_CAT_ID   = 11574
ELEMENT_SET_NO = 999
REV_AT_EPOCH   = 42606
BSTAR          = .11895E-3
MEAN_MOTION_DOT = .367E-5
MEAN_MOTION_DDOT = 0

CCSDS_OMM_VERS = 2.0
CREATION_DATE  = 
ORIGINATOR     = 

OBJECT_NAME    = SL-14 R/B
OBJECT_ID      = 1980-005B
CENTER_NAME    = EARTH
REF_FRAME      = TEME
TIME_SYSTEM    = UTC
MEAN_ELEMENT_THEORY = SGP/SGP4

EPOCH          = 2025-12-30T03:04:22.596384
MEAN_MOTION    = 14.90814809
ECCENTRICITY   = .0016782
INCLINATION    = 82.5139
RA_OF_ASC_NODE = 13.2062
ARG_OF_PERICENTER = 40.1156
MEAN_ANOMALY   = 320.1299

EPHEMERIS_TYPE = 0
CLASSIFICATION_TYPE = U
NORAD_CAT_ID   = 11672
ELEMENT_SET_NO = 999
REV_AT_EPOCH   = 46612
BSTAR          = .97423E-4
MEAN_MOTION_DOT = .986E-5
MEAN_MOTION_DDOT = 0

CCSDS_OMM_VERS = 2.0
CREATION_DATE  = 
ORIGINATOR     = 

OBJECT_NAME    = SL-8 R/B
OBJECT_ID      = 1981-003B
CENTER_NAME    = EARTH
REF_FRAME      = TEME
TIME_SYSTEM    = UTC
MEAN_ELEMENT_THEORY = SGP/SGP4

EPOCH          = 2025-12-29T23:57:14.955264
MEAN_MOTION    = 15.07629098
ECCENTRICITY   = .0276631
INCLINATION    = 82.9359
RA_OF_ASC_NODE = 354.3232
ARG_OF_PERICENTER = 61.0487
MEAN_ANOMALY   = 301.8177

EPHEMERIS_TYPE = 0
CLASSIFICATION_TYPE = U
NORAD_CAT_ID   = 12139
ELEMENT_SET_NO = 999
REV_AT_EPOCH   = 30416
BSTAR          = .70119E-3
MEAN_MOTION_DOT = .26519E-3
MEAN_MOTION_DDOT = 0

CCSDS_OMM_VERS = 2.0
CREATION_DATE  = 
ORIGINATOR     = 

OBJECT_NAME    = SL-3 R/B
OBJECT_ID      = 1981-046B
CENTER_NAME    = EARTH
REF_FRAME      = TEME
TIME_SYSTEM    = UTC
MEAN_ELEMENT_THEORY = SGP/SGP4

EPOCH          = 2025-12-30T02:38:51.209952
MEAN_MOTION    = 15.40001049
ECCENTRICITY   = .0017989
INCLINATION    = 81.2323
RA_OF_ASC_NODE = 13.1511
ARG_OF_PERICENTER = 260.2235
MEAN_ANOMALY   = 99.6976

EPHEMERIS_TYPE = 0
CLASSIFICATION_TYPE = U
NORAD_CAT_ID   = 12465
ELEMENT_SET_NO = 999
REV_AT_EPOCH   = 42771
BSTAR          = .41635E-3
MEAN_MOTION_DOT = .16746E-3
MEAN_MOTION_DDOT = 0

CCSDS_OMM_VERS = 2.0
CREATION_DATE  = 
ORIGINATOR     = 

OBJECT_NAME    = SL-3 R/B
OBJECT_ID      = 1981-103B
CENTER_NAME    = EARTH
REF_FRAME      = TEME
TIME_SYSTEM    = UTC
MEAN_ELEMENT_THEORY = SGP/SGP4

EPOCH          = 2025-12-30T02:25:40.406304
MEAN_MOTION    = 15.20455671
ECCENTRICITY   = .0013325
INCLINATION    = 81.1594
RA_OF_ASC_NODE = 295.0186
ARG_OF_PERICENTER = 152.5456
MEAN_ANOMALY   = 207.6481

EPHEMERIS_TYPE = 0
CLASSIFICATION_TYPE = U
NORAD_CAT_ID   = 12904
ELEMENT_SET_NO = 999
REV_AT_EPOCH   = 96265
BSTAR          = .44915E-3
MEAN_MOTION_DOT = .9852E-4
MEAN_MOTION_DDOT = 0

CCSDS_OMM_VERS = 2.0
CREATION_DATE  = 
ORIGINATOR     = 

OBJECT_NAME    = SL-3 R/B
OBJECT_ID      = 1982-013B
CENTER_NAME    = EARTH
REF_FRAME      = TEME
TIME_SYSTEM    = UTC
MEAN_ELEMENT_THEORY = SGP/SGP4

EPOCH          = 2025-12-30T03:22:47.273088
MEAN_MOTION    = 15.21251128
ECCENTRICITY   = .0023891
INCLINATION    = 81.1745
RA_OF_ASC_NODE = 242.2401
ARG_OF_PERICENTER = 55.3263
MEAN_ANOMALY   = 305.0215

EPHEMERIS_TYPE = 0
CLASSIFICATION_TYPE = U
NORAD_CAT_ID   = 13068
ELEMENT_SET_NO = 999
REV_AT_EPOCH   = 39377
BSTAR          = .31547E-3
MEAN_MOTION_DOT = .7126E-4
MEAN_MOTION_DDOT = 0

CCSDS_OMM_VERS = 2.0
CREATION_DATE  = 
ORIGINATOR     = 

OBJECT_NAME    = SL-3 R/B
OBJECT_ID      = 1982-039B
CENTER_NAME    = EARTH
REF_FRAME      = TEME
TIME_SYSTEM    = UTC
MEAN_ELEMENT_THEORY = SGP/SGP4

EPOCH          = 2025-12-30T03:19:14.916576
MEAN_MOTION    = 15.09636212
ECCENTRICITY   = .0029494
INCLINATION    = 81.1700
RA_OF_ASC_NODE = 296.0790
ARG_OF_PERICENTER = 193.1298
MEAN_ANOMALY   = 166.9163

EPHEMERIS_TYPE = 0
CLASSIFICATION_TYPE = U
NORAD_CAT_ID   = 13154
ELEMENT_SET_NO = 999
REV_AT_EPOCH   = 37114
BSTAR          = .30015E-3
MEAN_MOTION_DOT = .4899E-4
MEAN_MOTION_DDOT = 0

